[
    {
        "Altitude(m)": 557354.3924600908,
        "Argument of Periapsis(deg)": 0.013245982221427002,
        "Eccentricity": 0.0,
        "Inclination(deg)": 53.0,
        "Latitude(deg)": 41.92569007261032,
        "Longitude(deg)": 165.72481031102203,
        "Mean Anomaly(deg)": 56.54688573515518,
        "RAAN(deg)": 224.98028673705605,
        "Satellite Name": "Starlink Shell 1 992",
        "Satellite Number": 992,
        "Semi-Major Axis(m)": 6931778.249405717,
        "Time(s)": 380
    },
    {
        "Altitude(m)": 557435.2789057556,
        "Argument of Periapsis(deg)": 0.013594560700938237,
        "Eccentricity": 0.0,
        "Inclination(deg)": 53.0,
        "Latitude(deg)": 42.294791788297296,
        "Longitude(deg)": 166.36581518026665,
        "Mean Anomaly(deg)": 57.1737169387119,
        "RAAN(deg)": 224.97976796697856,
        "Satellite Name": "Starlink Shell 1 992",
        "Satellite Number": 992,
        "Semi-Major Axis(m)": 6931778.249405717,
        "Time(s)": 390
    },
    {
        "Altitude(m)": 557515.6134368591,
        "Argument of Periapsis(deg)": 0.013943139180449475,
        "Eccentricity": 0.0,
        "Inclination(deg)": 53.0,
        "Latitude(deg)": 42.65976358373394,
        "Longitude(deg)": 167.01478166615055,
        "Mean Anomaly(deg)": 57.800548142268596,
        "RAAN(deg)": 224.97924919690107,
        "Satellite Name": "Starlink Shell 1 992",
        "Satellite Number": 992,
        "Semi-Major Axis(m)": 6931778.249405717,
        "Time(s)": 400
    },
    {
        "Altitude(m)": 557595.3449927953,
        "Argument of Periapsis(deg)": 0.014291717659960712,
        "Eccentricity": 0.0,
        "Inclination(deg)": 53.0,
        "Latitude(deg)": 43.02050501029257,
        "Longitude(deg)": 167.6718142204065,
        "Mean Anomaly(deg)": 58.427379345825315,
        "RAAN(deg)": 224.9787304268236,
        "Satellite Name": "Starlink Shell 1 992",
        "Satellite Number": 992,
        "Semi-Major Axis(m)": 6931778.249405717,
        "Time(s)": 410
    },
    {
        "Altitude(m)": 557674.42302876,
        "Argument of Periapsis(deg)": 0.014640296139471948,
        "Eccentricity": 0.0,
        "Inclination(deg)": 53.0,
        "Latitude(deg)": 43.37691378588639,
        "Longitude(deg)": 168.33701354215117,
        "Mean Anomaly(deg)": 59.05421054938199,
        "RAAN(deg)": 224.97821165674614,
        "Satellite Name": "Starlink Shell 1 992",
        "Satellite Number": 992,
        "Semi-Major Axis(m)": 6931778.249405717,
        "Time(s)": 420
    },
    {
        "Altitude(m)": 557752.7975411591,
        "Argument of Periapsis(deg)": 0.014988874618983185,
        "Eccentricity": 0.0,
        "Inclination(deg)": 53.0,
        "Latitude(deg)": 43.7288858146475,
        "Longitude(deg)": 169.0104767081639,
        "Mean Anomaly(deg)": 59.68104175293874,
        "RAAN(deg)": 224.97769288666865,
        "Satellite Name": "Starlink Shell 1 992",
        "Satellite Number": 992,
        "Semi-Major Axis(m)": 6931778.249405717,
        "Time(s)": 430
    },
    {
        "Altitude(m)": 557830.419092714,
        "Argument of Periapsis(deg)": 0.015337453098494424,
        "Eccentricity": 0.0,
        "Inclination(deg)": 53.0,
        "Latitude(deg)": 44.07631521247988,
        "Longitude(deg)": 169.69229728447127,
        "Mean Anomaly(deg)": 60.30787295649546,
        "RAAN(deg)": 224.9771741165912,
        "Satellite Name": "Starlink Shell 1 992",
        "Satellite Number": 992,
        "Semi-Major Axis(m)": 6931778.249405717,
        "Time(s)": 440
    },
    {
        "Altitude(m)": 557907.2388372322,
        "Argument of Periapsis(deg)": 0.01568603157800566,
        "Eccentricity": 0.0,
        "Inclination(deg)": 53.0,
        "Latitude(deg)": 44.419094338903776,
        "Longitude(deg)": 170.38256390647538,
        "Mean Anomaly(deg)": 60.93470416005218,
        "RAAN(deg)": 224.97665534651375,
        "Satellite Name": "Starlink Shell 1 992",
        "Satellite Number": 992,
        "Semi-Major Axis(m)": 6931778.249405717,
        "Time(s)": 450
    },
    {
        "Altitude(m)": 557983.208544098,
        "Argument of Periapsis(deg)": 0.0160346100575169,
        "Eccentricity": 0.0,
        "Inclination(deg)": 53.0,
        "Latitude(deg)": 44.757113835606305,
        "Longitude(deg)": 171.08136035362133,
        "Mean Anomaly(deg)": 61.561535363608925,
        "RAAN(deg)": 224.97613657643623,
        "Satellite Name": "Starlink Shell 1 992",
        "Satellite Number": 992,
        "Semi-Major Axis(m)": 6931778.249405717,
        "Time(s)": 460
    },
    {
        "Altitude(m)": 558058.2806223702,
        "Argument of Periapsis(deg)": 0.016383188537028134,
        "Eccentricity": 0.0,
        "Inclination(deg)": 53.0,
        "Latitude(deg)": 45.09026267212832,
        "Longitude(deg)": 171.78876560613483,
        "Mean Anomaly(deg)": 62.188366567165595,
        "RAAN(deg)": 224.9756178063588,
        "Satellite Name": "Starlink Shell 1 992",
        "Satellite Number": 992,
        "Semi-Major Axis(m)": 6931778.249405717,
        "Time(s)": 470
    },
    {
        "Altitude(m)": 558132.4081445861,
        "Argument of Periapsis(deg)": 0.01673176701653937,
        "Eccentricity": 0.0,
        "Inclination(deg)": 53.0,
        "Latitude(deg)": 45.41842819911683,
        "Longitude(deg)": 172.504852371529,
        "Mean Anomaly(deg)": 62.81519777072232,
        "RAAN(deg)": 224.97509903628128,
        "Satellite Name": "Starlink Shell 1 992",
        "Satellite Number": 992,
        "Semi-Major Axis(m)": 6931778.249405717,
        "Time(s)": 480
    },
    {
        "Altitude(m)": 558205.5448701712,
        "Argument of Periapsis(deg)": 0.017080345496050607,
        "Eccentricity": 0.0,
        "Inclination(deg)": 53.0,
        "Latitude(deg)": 45.741496209565305,
        "Longitude(deg)": 173.22968710739357,
        "Mean Anomaly(deg)": 63.44202897427906,
        "RAAN(deg)": 224.97458026620384,
        "Satellite Name": "Starlink Shell 1 992",
        "Satellite Number": 992,
        "Semi-Major Axis(m)": 6931778.249405717,
        "Time(s)": 490
    },
    {
        "Altitude(m)": 558277.6452685033,
        "Argument of Periapsis(deg)": 0.017428923975561842,
        "Eccentricity": 0.0,
        "Inclination(deg)": 53.0,
        "Latitude(deg)": 46.059351008466436,
        "Longitude(deg)": 173.96333002855528,
        "Mean Anomaly(deg)": 64.06886017783575,
        "RAAN(deg)": 224.97406149612635,
        "Satellite Name": "Starlink Shell 1 992",
        "Satellite Number": 992,
        "Semi-Major Axis(m)": 6931778.249405717,
        "Time(s)": 500
    },
    {
        "Altitude(m)": 558348.6645415917,
        "Argument of Periapsis(deg)": 0.01777750245507308,
        "Eccentricity": 0.0,
        "Inclination(deg)": 53.0,
        "Latitude(deg)": 46.371875491293004,
        "Longitude(deg)": 174.7058335869252,
        "Mean Anomaly(deg)": 64.69569138139245,
        "RAAN(deg)": 224.9735427260489,
        "Satellite Name": "Starlink Shell 1 992",
        "Satellite Number": 992,
        "Semi-Major Axis(m)": 6931778.249405717,
        "Time(s)": 510
    },
    {
        "Altitude(m)": 558418.558646356,
        "Argument of Periapsis(deg)": 0.018126080934584315,
        "Eccentricity": 0.0,
        "Inclination(deg)": 53.0,
        "Latitude(deg)": 46.6789512317015,
        "Longitude(deg)": 175.4572424512002,
        "Mean Anomaly(deg)": 65.32252258494916,
        "RAAN(deg)": 224.9730239559714,
        "Satellite Name": "Starlink Shell 1 992",
        "Satellite Number": 992,
        "Semi-Major Axis(m)": 6931778.249405717,
        "Time(s)": 520
    },
    {
        "Altitude(m)": 558487.2843165377,
        "Argument of Periapsis(deg)": 0.018474659414095554,
        "Eccentricity": 0.0,
        "Inclination(deg)": 53.0,
        "Latitude(deg)": 46.98045857884194,
        "Longitude(deg)": 176.21759347521854,
        "Mean Anomaly(deg)": 65.94935378850587,
        "RAAN(deg)": 224.97250518589394,
        "Satellite Name": "Starlink Shell 1 992",
        "Satellite Number": 992,
        "Semi-Major Axis(m)": 6931778.249405717,
        "Time(s)": 530
    },
    {
        "Altitude(m)": 558554.799084171,
        "Argument of Periapsis(deg)": 0.018823237893606792,
        "Eccentricity": 0.0,
        "Inclination(deg)": 53.0,
        "Latitude(deg)": 47.27627676463445,
        "Longitude(deg)": 176.9869141440313,
        "Mean Anomaly(deg)": 66.57618499206264,
        "RAAN(deg)": 224.97198641581647,
        "Satellite Name": "Starlink Shell 1 992",
        "Satellite Number": 992,
        "Semi-Major Axis(m)": 6931778.249405717,
        "Time(s)": 540
    },
    {
        "Altitude(m)": 558621.0613006615,
        "Argument of Periapsis(deg)": 0.019171816373118027,
        "Eccentricity": 0.0,
        "Inclination(deg)": 53.0,
        "Latitude(deg)": 47.56628402133385,
        "Longitude(deg)": 177.76522252564953,
        "Mean Anomaly(deg)": 67.20301619561928,
        "RAAN(deg)": 224.97146764573898,
        "Satellite Name": "Starlink Shell 1 992",
        "Satellite Number": 992,
        "Semi-Major Axis(m)": 6931778.249405717,
        "Time(s)": 550
    },
    {
        "Altitude(m)": 558686.0301574222,
        "Argument of Periapsis(deg)": 0.019520394852629266,
        "Eccentricity": 0.0,
        "Inclination(deg)": 53.0,
        "Latitude(deg)": 47.85035770967749,
        "Longitude(deg)": 178.55252721809228,
        "Mean Anomaly(deg)": 67.82984739917606,
        "RAAN(deg)": 224.97094887566152,
        "Satellite Name": "Starlink Shell 1 992",
        "Satellite Number": 992,
        "Semi-Major Axis(m)": 6931778.249405717,
        "Time(s)": 560
    }
]